BEESAT-4                
1 41619U 16040W   21286.11012641  .00007130  00000-0  27774-3 0  9998
2 41619  97.2563 338.8671 0008654 275.6109  84.4143 15.26240223282951
CAS-2T & KS-1Q          
1 41847U 16066G   21285.14434446  .00000323  00000-0  59529-4 0  9993
2 41847  98.5883 344.6864 0364195 231.8989 124.8838 14.38250041258658
NAYIF-1 (EO-88)         
1 42017U 17008BX  21286.13495315  .00008648  00000-0  30946-3 0  9991
2 42017  97.3039 351.6077 0007143  60.8462 299.3492 15.28995803259236
ZHUHAI-1 02 (CAS-4B)    
1 42759U 17034B   21286.14268867  .00001112  00000-0  79701-4 0  9996
2 42759  43.0175 253.9746 0007520 188.6857 235.7523 15.10434955238942
ZHUHAI-1 01 (CAS-4A)    
1 42761U 17034D   21286.06478755  .00001146  00000-0  81533-4 0  9992
2 42761  43.0172 253.3720 0008086 190.4457 256.2418 15.10521988238936
MAX VALIER SAT          
1 42778U 17036P   21285.51928687  .00004055  00000-0  16955-3 0  9992
2 42778  97.2426 330.2423 0013325 119.8805 240.3759 15.24070524239119
RADFXSAT (FOX-1B)       
1 43017U 17073E   21285.25568234  .00001990  00000-0  15855-3 0  9992
2 43017  97.6938 184.5493 0252524 279.2954  77.9785 14.79838065210390
FOX-1D (AO-92)          
1 43137U 18004AC  21285.15726208  .00004758  00000-0  18888-3 0  9990
2 43137  97.3966 357.9705 0009458 150.7784 209.3985 15.25784017208448
DIWATA-2B               
1 43678U 18084H   21286.10382562  .00000056  00000-0  11356-4 0  9996
2 43678  97.9391  52.0950 0010620  29.4312 330.7520 14.91802570160979
ES'HAIL 2               
1 43700U 18090A   21285.84610986  .00000130  00000-0  00000-0 0  9996
2 43700   0.0177 178.1662 0002249  44.1835 129.6740  1.00271598 10546
FOX-1CLIFF (AO-95)      
1 43770U 18099N   21285.41516706  .00001283  00000-0  12083-3 0  9997
2 43770  97.6543 352.9607 0015186  32.3601 327.8549 14.95471631155937
ITASAT 1                
1 43786U 18099AE  21285.44587204  .00000515  00000-0  51215-4 0  9996
2 43786  97.6561 353.7503 0015577  24.4054 335.7901 14.95743695155972
JY1SAT (JO-97)          
1 43803U 18099AX  21285.45631311  .00001080  00000-0  10115-3 0  9997
2 43803  97.6520 353.5008 0015378  24.2956 335.8987 14.96019360155985
UWE-4                   
1 43880U 18111E   21285.96285927  .00001868  00000-0  16694-3 0  9993
2 43880  97.6771 191.6362 0013973  72.6540 287.6209 14.97036526150662
NEXUS (FO-99)           
1 43937U 19003F   21285.36783984  .00005487  00000-0  21227-3 0  9996
2 43937  97.1651 323.8327 0021472 321.1830  38.7866 15.26386487152094
PSAT2 (NO-104)          
1 44354U 19036R   21285.46089751  .00039950  00000-0  50644-3 0  9995
2 44354  28.5260  64.6824 0310208 108.2283 255.2326 15.17582488126747
BRICSAT2 (NO-103)       
1 44355U 19036S   21285.50357988  .00110985 -37103-5  10410-2 0  9995
2 44355  28.5278 357.3895 0227326 217.5636 140.8885 15.39485093127424
JAISAT-1                
1 44419U 19038F   21285.42638116  .00003717  00000-0  20641-3 0  9996
2 44419  97.6029 249.8077 0019035 269.2058  90.6993 15.14216877125493
DUCHIFAT-3              
1 44854U 19089C   21285.78362714  .00001139  00000-0  96906-4 0  9996
2 44854  36.9668 126.6811 0009060   1.6547 358.4227 14.99686668100722
CAS-6 (TO-108)          
1 44881U 19093C   21286.12475449  .00000181  00000-0  29913-4 0  9990
2 44881  97.9165   3.6288 0013660 271.2311  88.7347 14.81491081 98151
RS-44 & BREEZE-KM R/B   
1 44909U 19096E   21285.43157197  .00000021  00000-0  37050-4 0  9998
2 44909  82.5256  35.0730 0217597 179.3657 180.7763 12.79711244 83789
ORBITAL FACTORY 2 (OF-2)
1 45113U 19071C   21285.43250871  .00010918  00000-0  30741-3 0  9997
2 45113  51.6402 189.9168 0011158   1.1731 358.9277 15.36925004 95151
HUSKYSAT-1 (HO-107)     
1 45119U 19071J   21286.09492457  .00010517  00000-0  29704-3 0  9996
2 45119  51.6398 186.0808 0010630   0.1209 359.9775 15.36875941 95252
BY70-2                  
1 45857U 20042B   21286.16869616  .00002198  00000-0  31594-3 0  9994
2 45857  97.9776   0.6805 0011258 186.8094 173.2987 14.77385744 68920
SALSAT                  
1 46495U 20068K   21285.92588166  .00000148  00000-0  15361-4 0  9990
2 46495  97.6997 222.7690 0018228  37.7055 322.5448 15.03579758 56989
BY70-3                  
1 46839U 20079N   21286.17885530  .00007248  00000-0  21755-3 0  9998
2 46839  97.2303 357.7048 0008363 135.4040 304.6014 15.34708037 52257
RADFXSAT-2 (AO-109)     
1 47311U 21002C   21285.50088214  .00004632  00000-0  20804-3 0  9999
2 47311  60.6854 212.8943 0040256 107.5377 253.0115 15.22140007 40680
UVSQ-SAT                
1 47438U 21006AB  21286.08130650  .00002733  00000-0  15615-3 0  9993
2 47438  97.4745 345.1401 0013900  56.6047 303.6512 15.13469520 39843
DIY-1 (ARDUIQUBE)       
1 47963U 21022AH  21285.97744003  .00007593  00000-0  49608-3 0  9992
2 47963  97.5457 186.2028 0017285 263.8967  96.0291 15.07977864 29607
